{"type": "FeatureCollection", "features": [ {"type": "Feature", "properties": {"norad_id": 51444, "name": "CSG-2", "group": "resource", "lat": 43.79966301273104, "lon": -12.109382748556866, "alt_km": 618.1885518786848, "timestamp": "2025-12-04T19:33:59.289154+00:00", "meta": {"OBJECT_NAME": "CSG-2", "OBJECT_ID": "2022-008A", "EPOCH": "2025-12-04T07:36:54.312192", "MEAN_MOTION": 14.82151028, "ECCENTRICITY": 0.00014814, "INCLINATION": 97.8807, "RA_OF_ASC_NODE": 159.7674, "ARG_OF_PERICENTER": 89.1423, "MEAN_ANOMALY": 270.996, "EPHEMERIS_TYPE": 0, "CLASSIFICATION_TYPE": "U", "NORAD_CAT_ID": 51444, "ELEMENT_SET_NO": 999, "REV_AT_EPOCH": 20772, "BSTAR": 0.00014542205, "MEAN_MOTION_DOT": 1.106e-05, "MEAN_MOTION_DDOT": 0}, "tle": {"line1": "1 51444U 22008A   25338.31729528  .00001106  00000+0  14542-3 0  9994", "line2": "2 51444  97.8807 159.7674 0001481  89.1423 270.9960 14.82151028207722"}}, "geometry": {"type": "Point", "coordinates": [-12.109382748556866, 43.79966301273104]}}, {"type": "Feature", "properties": {"norad_id": 52912, "name": "GAOFEN-12 03", "group": "resource", "lat": 54.014568352899886, "lon": 57.29772638689812, "alt_km": 624.5501831292177, "timestamp": "2025-12-04T19:33:59.289163+00:00", "meta": {"OBJECT_NAME": "GAOFEN-12 03", "OBJECT_ID": "2022-069A", "EPOCH": "2025-12-04T07:38:29.034240", "MEAN_MOTION": 14.79577794, "ECCENTRICITY": 0.00023233, "INCLINATION": 97.8489, "RA_OF_ASC_NODE": 225.8616, "ARG_OF_PERICENTER": 75.251, "MEAN_ANOMALY": 284.8959, "EPHEMERIS_TYPE": 0, "CLASSIFICATION_TYPE": "U", "NORAD_CAT_ID": 52912, "ELEMENT_SET_NO": 999, "REV_AT_EPOCH": 18579, "BSTAR": 0.00037013089, "MEAN_MOTION_DOT": 2.721e-05, "MEAN_MOTION_DDOT": 0}, "tle": {"line1": "1 52912U 22069A   25338.31839160  .00002721  00000+0  37013-3 0  9998", "line2": "2 52912  97.8489 225.8616 0002323  75.2510 284.8959 14.79577794185791"}}, "geometry": {"type": "Point", "coordinates": [57.29772638689812, 54.014568352899886]}}, {"type": "Feature", "properties": {"norad_id": 54754, "name": "SWOT", "group": "resource", "lat": -19.569101684063323, "lon": 122.16959717418062, "alt_km": 897.9991448452729, "timestamp": "2025-12-04T19:33:59.289172+00:00", "meta": {"OBJECT_NAME": "SWOT", "OBJECT_ID": "2022-173A", "EPOCH": "2025-12-04T06:36:37.064736", "MEAN_MOTION": 14.00172757, "ECCENTRICITY": 3.277e-05, "INCLINATION": 77.6099, "RA_OF_ASC_NODE": 298.4164, "ARG_OF_PERICENTER": 139.1595, "MEAN_ANOMALY": 220.9581, "EPHEMERIS_TYPE": 0, "CLASSIFICATION_TYPE": "U", "NORAD_CAT_ID": 54754, "ELEMENT_SET_NO": 999, "REV_AT_EPOCH": 15187, "BSTAR": 9.8264019e-05, "MEAN_MOTION_DOT": 1.42e-06, "MEAN_MOTION_DDOT": 0}, "tle": {"line1": "1 54754U 22173A   25338.27542899  .00000142  00000+0  98264-4 0  9996", "line2": "2 54754  77.6099 298.4164 0000327 139.1595 220.9581 14.00172757151877"}}, "geometry": {"type": "Point", "coordinates": [122.16959717418062, -19.569101684063323]}}, {"type": "Feature", "properties": {"norad_id": 57654, "name": "GAOFEN-12 04", "group": "resource", "lat": -66.5493124764961, "lon": -86.60900565517028, "alt_km": 638.401319198957, "timestamp": "2025-12-04T19:33:59.289181+00:00", "meta": {"OBJECT_NAME": "GAOFEN-12 04", "OBJECT_ID": "2023-123A", "EPOCH": "2025-12-04T08:30:42.733728", "MEAN_MOTION": 14.79661596, "ECCENTRICITY": 0.00014493, "INCLINATION": 97.9118, "RA_OF_ASC_NODE": 254.2394, "ARG_OF_PERICENTER": 73.1267, "MEAN_ANOMALY": 287.0103, "EPHEMERIS_TYPE": 0, "CLASSIFICATION_TYPE": "U", "NORAD_CAT_ID": 57654, "ELEMENT_SET_NO": 999, "REV_AT_EPOCH": 12381, "BSTAR": 0.00045315104, "MEAN_MOTION_DOT": 3.35e-05, "MEAN_MOTION_DDOT": 0}, "tle": {"line1": "1 57654U 23123A   25338.35466127  .00003350  00000+0  45315-3 0  9994", "line2": "2 57654  97.9118 254.2394 0001449  73.1267 287.0103 14.79661596123817"}}, "geometry": {"type": "Point", "coordinates": [-86.60900565517028, -66.5493124764961]}}, {"type": "Feature", "properties": {"norad_id": 59065, "name": "PARS 1", "group": "resource", "lat": 26.461259667796753, "lon": -54.157988470171084, "alt_km": 439.94055434249003, "timestamp": "2025-12-04T19:33:59.289189+00:00", "meta": {"OBJECT_NAME": "PARS 1", "OBJECT_ID": "2024-039Q", "EPOCH": "2025-12-04T06:58:51.593952", "MEAN_MOTION": 15.40689077, "ECCENTRICITY": 0.00126928, "INCLINATION": 97.4619, "RA_OF_ASC_NODE": 309.0473, "ARG_OF_PERICENTER": 97.0246, "MEAN_ANOMALY": 263.2444, "EPHEMERIS_TYPE": 0, "CLASSIFICATION_TYPE": "U", "NORAD_CAT_ID": 59065, "ELEMENT_SET_NO": 999, "REV_AT_EPOCH": 9858, "BSTAR": 0.00055313225, "MEAN_MOTION_DOT": 0.00022589, "MEAN_MOTION_DDOT": 0}, "tle": {"line1": "1 59065U 24039Q   25338.29087493  .00022589  00000+0  55313-3 0  9991", "line2": "2 59065  97.4619 309.0473 0012692  97.0246 263.2444 15.40689077 98589"}}, "geometry": {"type": "Point", "coordinates": [-54.157988470171084, 26.461259667796753]}}, {"type": "Feature", "properties": {"norad_id": 59371, "name": "RESURS-P 4", "group": "resource", "lat": 59.09259758896218, "lon": -86.975182212118, "alt_km": 462.768255263195, "timestamp": "2025-12-04T19:33:59.289198+00:00", "meta": {"OBJECT_NAME": "RESURS-P 4", "OBJECT_ID": "2024-061A", "EPOCH": "2025-12-04T08:19:58.370304", "MEAN_MOTION": 15.31983468, "ECCENTRICITY": 0.00021027, "INCLINATION": 97.2533, "RA_OF_ASC_NODE": 284.8499, "ARG_OF_PERICENTER": 55.4175, "MEAN_ANOMALY": 304.7265, "EPHEMERIS_TYPE": 0, "CLASSIFICATION_TYPE": "U", "NORAD_CAT_ID": 59371, "ELEMENT_SET_NO": 999, "REV_AT_EPOCH": 9392, "BSTAR": 0.00027118447, "MEAN_MOTION_DOT": 8.3e-05, "MEAN_MOTION_DDOT": 0}, "tle": {"line1": "1 59371U 24061A   25338.34720336  .00008300  00000+0  27118-3 0  9999", "line2": "2 59371  97.2533 284.8499 0002102  55.4175 304.7265 15.31983468 93920"}}, "geometry": {"type": "Point", "coordinates": [-86.975182212118, 59.09259758896218]}}, {"type": "Feature", "properties": {"norad_id": 59625, "name": "LEGION 1", "group": "resource", "lat": 9.465211423256301, "lon": 52.25977531038912, "alt_km": 515.6116672516118, "timestamp": "2025-12-04T19:33:59.289207+00:00", "meta": {"OBJECT_NAME": "LEGION 1", "OBJECT_ID": "2024-081A", "EPOCH": "2025-12-04T06:51:16.367040", "MEAN_MOTION": 15.16350065, "ECCENTRICITY": 0.00046272, "INCLINATION": 97.5231, "RA_OF_ASC_NODE": 52.9971, "ARG_OF_PERICENTER": 351.5444, "MEAN_ANOMALY": 8.571, "EPHEMERIS_TYPE": 0, "CLASSIFICATION_TYPE": "U", "NORAD_CAT_ID": 59625, "ELEMENT_SET_NO": 999, "REV_AT_EPOCH": 8799, "BSTAR": 0.00059168251, "MEAN_MOTION_DOT": 0.00011422, "MEAN_MOTION_DDOT": 0}, "tle": {"line1": "1 59625U 24081A   25338.28560610  .00011422  00000+0  59168-3 0  9992", "line2": "2 59625  97.5231  52.9971 0004627 351.5444   8.5710 15.16350065 87990"}}, "geometry": {"type": "Point", "coordinates": [52.25977531038912, 9.465211423256301]}}, {"type": "Feature", "properties": {"norad_id": 59626, "name": "LEGION 2", "group": "resource", "lat": -9.077659155749359, "lon": -127.60091870127067, "alt_km": 524.1305382815353, "timestamp": "2025-12-04T19:33:59.289216+00:00", "meta": {"OBJECT_NAME": "LEGION 2", "OBJECT_ID": "2024-081B", "EPOCH": "2025-12-04T06:03:54.474912", "MEAN_MOTION": 15.16359949, "ECCENTRICITY": 0.00061714, "INCLINATION": 97.5232, "RA_OF_ASC_NODE": 53.0512, "ARG_OF_PERICENTER": 328.3826, "MEAN_ANOMALY": 31.7036, "EPHEMERIS_TYPE": 0, "CLASSIFICATION_TYPE": "U", "NORAD_CAT_ID": 59626, "ELEMENT_SET_NO": 999, "REV_AT_EPOCH": 8799, "BSTAR": 0.00055922373, "MEAN_MOTION_DOT": 0.00010796, "MEAN_MOTION_DDOT": 0}, "tle": {"line1": "1 59626U 24081B   25338.25271383  .00010796  00000+0  55922-3 0  9993", "line2": "2 59626  97.5232  53.0512 0006171 328.3826  31.7036 15.16359949 87996"}}, "geometry": {"type": "Point", "coordinates": [-127.60091870127067, -9.077659155749359]}}, {"type": "Feature", "properties": {"norad_id": 60182, "name": "ALOS-4 (DAICHI-4)", "group": "resource", "lat": 1.0578508229412251, "lon": -106.07760422560739, "alt_km": 633.8497772651926, "timestamp": "2025-12-04T19:33:59.289225+00:00", "meta": {"OBJECT_NAME": "ALOS-4 (DAICHI-4)", "OBJECT_ID": "2024-123A", "EPOCH": "2025-11-30T09:15:12.370176", "MEAN_MOTION": 14.79468497, "ECCENTRICITY": 0.000127, "INCLINATION": 97.9232, "RA_OF_ASC_NODE": 69.4089, "ARG_OF_PERICENTER": 105.4124, "MEAN_ANOMALY": 254.7228, "EPHEMERIS_TYPE": 0, "CLASSIFICATION_TYPE": "U", "NORAD_CAT_ID": 60182, "ELEMENT_SET_NO": 999, "REV_AT_EPOCH": 7648, "BSTAR": -8.429942e-06, "MEAN_MOTION_DOT": -1.14e-06, "MEAN_MOTION_DDOT": 0}, "tle": {"line1": "1 60182U 24123A   25334.38555984 -.00000114  00000+0 -84299-5 0  9997", "line2": "2 60182  97.9232  69.4089 0001270 105.4124 254.7228 14.79468497 76488"}}, "geometry": {"type": "Point", "coordinates": [-106.07760422560739, 1.0578508229412251]}}, {"type": "Feature", "properties": {"norad_id": 60452, "name": "LEGION 3", "group": "resource", "lat": -4.283564416740072, "lon": 176.90715404801202, "alt_km": 511.48804360130544, "timestamp": "2025-12-04T19:33:59.289234+00:00", "meta": {"OBJECT_NAME": "LEGION 3", "OBJECT_ID": "2024-146A", "EPOCH": "2025-12-04T06:05:43.907424", "MEAN_MOTION": 15.15620799, "ECCENTRICITY": 0.00138729, "INCLINATION": 45.0023, "RA_OF_ASC_NODE": 355.6187, "ARG_OF_PERICENTER": 150.6855, "MEAN_ANOMALY": 209.4805, "EPHEMERIS_TYPE": 0, "CLASSIFICATION_TYPE": "U", "NORAD_CAT_ID": 60452, "ELEMENT_SET_NO": 999, "REV_AT_EPOCH": 7244, "BSTAR": 0.000610388, "MEAN_MOTION_DOT": 0.00011576, "MEAN_MOTION_DDOT": 0}, "tle": {"line1": "1 60452U 24146A   25338.25398041  .00011576  00000+0  61039-3 0  9998", "line2": "2 60452  45.0023 355.6187 0013872 150.6855 209.4805 15.15620799 72449"}}, "geometry": {"type": "Point", "coordinates": [176.90715404801202, -4.283564416740072]}}]}